    meananomaly => '63.6354',
    eccentricity => '0.0055489',
    meanmotion => '14.77246271',
    inclination => '64.5605',
    number => '57',
    argperigee => '295.8987',
    mm1 => '4.49e-05',
    mm2 => '0',
    bstar => '0.00063504',
    id => '26545',
    elset => '250',
    epoch => '2052.26543628'
  },
  'AO-10' => {
    orbit => '14042',
    raan => '227.7525',
    meananomaly => '66.3495',
    eccentricity => '0.6069312',
    meanmotion => '2.05865256',
    inclination => '25.8993',
    number => '83058',
    argperigee => '224.6736',
    mm1 => '1.78e-06',
    mm2 => '0',
    bstar => '0.0001',
    id => '14129',
    elset => '863',
    epoch => '2044.83774806'
  },
  'SAUDISAT-1B' => {
    orbit => '7551',
    raan => '68.762',
    meananomaly => '60.1313',
    eccentricity => '0.0057921',
    meanmotion => '14.76241312',
    inclination => '64.5555',
    number => '57',
    argperigee => '299.4027',
    mm1 => '3.882e-05',
    mm2 => '0',
    bstar => '0.00056372',
    id => '26549',
    elset => '395',
    epoch => '2051.50637319'
  },
  'AO-16' => {
    orbit => '63062',
    raan => '116.1959',
    meananomaly => '157.8679',
    eccentricity => '0.0010438',
    meanmotion => '14.31181724',
    inclination => '98.3683',
    number => '90005',
    argperigee => '202.2067',
    mm1 => '6.9e-06',
    mm2 => '0',
    bstar => '0.00027692',
    id => '20439',
    elset => '691',
    epoch => '2051.70971636'
  },
  'SICH-1' => {
    orbit => '34862',
    raan => '86.6707',
    meananomaly => '223.389',
    eccentricity => '0.0026689',
    meanmotion => '14.78178382',
    inclination => '82.5288',
    number => '95046',
    argperigee => '136.9417',
    mm1 => '3.452e-05',
    mm2 => '0',
    bstar => '0.0004707',
    id => '23657',
    elset => '986',
    epoch => '2051.92878734'
  },
  'AO-37' => {
    orbit => '10842',
    raan => '35.6779',
    meananomaly => '134.2746',
    eccentricity => '0.0037436',
    meanmotion => '14.35131246',
    inclination => '100.2234',
    number => '4',
    argperigee => '225.537',
    mm1 => '1.078e-05',
    mm2 => '0',
    bstar => '0.00039489',
    id => '26065',
    elset => '449',
    epoch => '2052.3851873'
  },
  'GO-32' => {
    orbit => '18792',
    raan => '129.725',
    meananomaly => '252.1727',
    eccentricity => '0.000193',
    meanmotion => '14.22793108',
    inclination => '98.6587',
    number => '98043',
    argperigee => '107.9661',
    mm1 => '4.06e-06',
    mm2 => '0',
    bstar => '0.0002003',
    id => '25397',
    elset => '647',
    epoch => '2051.92068452'
  },
  'DO-17' => {
    orbit => '63072',
    raan => '119.5333',
    meananomaly => '158.3785',
    eccentricity => '0.0010253',
    meanmotion => '14.31431432',
    inclination => '98.3842',
    number => '90005',
    argperigee => '201.6962',
    mm1 => '7.87e-06',
    mm2 => '0',
    bstar => '0.00031216',
    id => '20440',
    elset => '666',
    epoch => '2051.97578324'
  },
  'OKEAN-0' => {
    orbit => '13952',
    raan => '104.8656',
    meananomaly => '254.9652',
    eccentricity => '0.0001264',
    meanmotion => '14.71641781',
    inclination => '97.9119',
    number => '99039',
    argperigee => '105.169',
    mm1 => '2.529e-05',
    mm2 => '0',
    bstar => '0.00041396',
    id => '25860',
    elset => '716',
    epoch => '2051.55578915'
  },
  SAPHIRE => {
    orbit => '1655',
    meananomaly => '82.9866',
    raan => '180.8307',
    eccentricity => '0.0003371',
    meanmotion => '14.2895422',
    inclination => '67.05',
    number => '1043',
    mm1 => '8.21e-06',
    argperigee => '277.0852',
    bstar => '0.0003571',
    mm2 => '0',
    elset => '94',
    id => '26932',
    epoch => '2023.93346359'
  },
  FENGYUN1 => {
    orbit => '14345',
    raan => '84.3714',
    meananomaly => '41.1118',
    eccentricity => '0.0014084',
    meanmotion => '14.10511901',
    inclination => '98.668',
    number => '99025',
    argperigee => '318.8991',
    mm1 => '7.13e-06',
    mm2 => '0',
    bstar => '0.00042393',
    id => '25730',
    elset => '484',
    epoch => '2051.74493497'
  },
  'OKEAN-4' => {
    orbit => '39652',
    raan => '305.5438',
    meananomaly => '203.4567',
    eccentricity => '0.0023359',
    meanmotion => '14.79312097',
    inclination => '82.5435',
    number => '94066',
    argperigee => '156.7709',
    mm1 => '3.61e-05',
    mm2 => '0',
    bstar => '0.00048007',
    id => '23317',
    elset => '12',
    epoch => '2052.38201307'
  },
  HUBBLE => {
    orbit => '44822',
    raan => '231.2583',
    meananomaly => '312.127',
    eccentricity => '0.00125',
    meanmotion => '14.97193103',
    inclination => '28.4695',
    number => '90037',
    argperigee => '48.0381',
    mm1 => '7.913e-05',
    mm2 => '0',
    bstar => '0.00065355',
    id => '20580',
    elset => '871',
    epoch => '2051.72839079'
  },
  'LO-19' => {
    orbit => '63100',
    raan => '123.024',
    meananomaly => '164.798',
    eccentricity => '0.0011335',
    meanmotion => '14.31426162',
    inclination => '98.3987',
    number => '90005',
    argperigee => '195.2862',
    mm1 => '6.76e-06',
    mm2 => '0',
    bstar => '0.00027063',
    id => '20442',
    elset => '698',
    epoch => '2053.68796185'
  },
  'PO-34' => {
    orbit => '18256',
    raan => '117.0304',
    meananomaly => '336.094',
    eccentricity => '0.0006112',
    meanmotion => '15.1098966',
    inclination => '28.4628',
    number => '98064',
    argperigee => '23.9936',
    mm1 => '6.588e-05',
    mm2 => '0',
    bstar => '0.0003736',
    id => '25520',
    elset => '529',
    epoch => '2051.52611197'
  },
  'UO-11' => {
    orbit => '96270',
    raan => '19.6758',
    meananomaly => '58.6406',
    eccentricity => '0.0008599',
    meanmotion => '14.76021482',
    inclination => '98.0693',
    number => '84021',
    argperigee => '301.3961',
    mm1 => '4.841e-05',
    mm2 => '0',
    bstar => '0.00070961',
    id => '14781',
    elset => '756',
    epoch => '2051.93322242'
  },
  'TO-31' => {
    orbit => '18794',
    raan => '130.4584',
    meananomaly => '253.2239',
    eccentricity => '0.0003591',
    meanmotion => '14.23282024',
    inclination => '98.661',
    number => '98043',
    argperigee => '106.9343',
    mm1 => '-4.4e-07',
    mm2 => '0',
    bstar => '0',
    id => '25396',
    elset => '698',
    epoch => '2051.9630538'
  },
  'SO-33' => {
    orbit => '17350',
    raan => '38.6464',
    meananomaly => '341.6005',
    eccentricity => '0.0360141',
    meanmotion => '14.26628404',
    inclination => '31.4338',
    number => '98061',
    argperigee => '19.8273',
    mm1 => '3.088e-05',
    mm2 => '0',
    bstar => '0.00061806',
    id => '25509',
    elset => '514',
    epoch => '2052.14164463'
  },
  'OO-38' => {
    orbit => '10837',
    raan => '35.074',
    meananomaly => '134.1678',
    eccentricity => '0.0037056',
    meanmotion => '14.35135129',
    inclination => '100.2217',
    number => '4',
    argperigee => '225.6462',
    mm1 => '9.83e-06',
    mm2 => '0',
    bstar => '0.00036213',
    id => '26063',
    elset => '446',
    epoch => '2051.93650441'
  },
  'UO-14' => {
    orbit => '63059',
    raan => '106.6396',
    meananomaly => '163.2164',
    eccentricity => '0.0009994',
    meanmotion => '14.30996892',
    inclination => '98.3275',
    number => '90005',
    argperigee => '196.8692',
    mm1 => '5.48e-06',
    mm2 => '0',
    bstar => '0.00022384',
    id => '20437',
    elset => '898',
    epoch => '2051.7104243'
  },
  'MET-2/21' => {
    orbit => '42793',
    raan => '142.603',
    meananomaly => '76.4591',
    eccentricity => '0.0020967',
    meanmotion => '13.83459547',
    inclination => '82.5514',
    number => '93055',
    argperigee => '283.4238',
    mm1 => '4.2e-06',
    mm2 => '0',
    bstar => '0.00036822',
    id => '22782',
    elset => '214',
    epoch => '2051.84479328'
  },
  'RS-15' => {
    orbit => '29468',
    raan => '268.249',
    meananomaly => '176.8094',
    eccentricity => '0.0157356',
    meanmotion => '11.27544355',
    inclination => '64.8138',
    number => '94085',
    argperigee => '183.1833',
    mm1 => '-1.9e-07',
    mm2 => '0',
    bstar => '0.00066488',
    id => '23439',
    elset => '625',
    epoch => '2051.71984961'
  },
  'UO-36' => {
    orbit => '15297',
    raan => '34.4328',
    meananomaly => '135.8247',
    eccentricity => '0.0022525',
    meanmotion => '14.74077848',
    inclination => '64.5619',
    number => '99021',
    argperigee => '224.1073',
    mm1 => '-0.00019481',
    mm2 => '0',
    bstar => '-0.0029242',
    id => '25693',
    elset => '660',
    epoch => '2053.40096313'
  },
  PCSAT => {
    orbit => '1662',
    meananomaly => '83.3102',
    raan => '179.4298',
    eccentricity => '0.0005257',
    meanmotion => '14.28642527',
    inclination => '67.0454',
    number => '1043',
    mm1 => '1.166e-05',
    argperigee => '276.7398',
    bstar => '0.00049633',
    mm2 => '0',
    elset => '96',
    id => '26931',
    epoch => '2024.52202724'
  },
  'WO-18' => {
    orbit => '63077',
    raan => '119.384',
    meananomaly => '160.7293',
    eccentricity => '0.0011284',
    meanmotion => '14.31269337',
    inclination => '98.3842',
    number => '90005',
    argperigee => '199.3462',
    mm1 => '6.55e-06',
    mm2 => '0',
    bstar => '0.00026336',
    id => '20441',
    elset => '728',
    epoch => '2052.41099324'
  },
  'WO-39' => {
    orbit => '10842',
    raan => '36.1167',
    meananomaly => '137.6804',
    eccentricity => '0.0035386',
    meanmotion => '14.36881856',
    inclination => '100.2203',
    number => '4',
    argperigee => '222.1659',
    mm1 => '2.615e-05',
    mm2 => '0',
    bstar => '0.00089758',
    id => '26061',
    elset => '479',
    epoch => '2051.86522826'
  }
);
1;
